[{"OBJECT_NAME":"STARLINK-5473","OBJECT_ID":"2023-021AM","EPOCH":"2026-03-09T16:20:51.896544","MEAN_MOTION":14.98332272,"ECCENTRICITY":0.00032059,"INCLINATION":70.0014,"RA_OF_ASC_NODE":164.464,"ARG_OF_PERICENTER":269.2731,"MEAN_ANOMALY":90.8061,"EPHEMERIS_TYPE":0,"CLASSIFICATION_TYPE":"U","NORAD_CAT_ID":55663,"ELEMENT_SET_NO":999,"REV_AT_EPOCH":16927,"BSTAR":-1.0487234e-5,"MEAN_MOTION_DOT":-2.18e-6,"MEAN_MOTION_DDOT":0},{"OBJECT_NAME":"FENGYUN 1C DEB","OBJECT_ID":"1999-025CWT","EPOCH":"2026-03-07T12:20:18.865536","MEAN_MOTION":14.78969829,"ECCENTRICITY":0.00944747,"INCLINATION":98.6527,"RA_OF_ASC_NODE":273.8426,"ARG_OF_PERICENTER":72.7865,"MEAN_ANOMALY":288.3658,"EPHEMERIS_TYPE":0,"CLASSIFICATION_TYPE":"U","NORAD_CAT_ID":32245,"ELEMENT_SET_NO":999,"REV_AT_EPOCH":67358,"BSTAR":0.0016597334,"MEAN_MOTION_DOT":0.00013167,"MEAN_MOTION_DDOT":0}]
